ONEWEB-0175             
1 48073U 21025AH  23059.41193200 -.00000194  00000+0 -56512-3 0  9998
2 48073  87.9076 199.6467 0001141 115.1656 244.9591 13.13469488 95336
ONEWEB-0175             
1 48073U 21025AH  23059.94517670 -.00000354  00000+0 -10036-2 0  9995
2 48073  87.9074 199.5409 0001137 116.0538 244.0708 13.13468658 95400
ONEWEB-0175             
1 48073U 21025AH  23060.85930815 -.00000188  00000+0 -54888-3 0  9996
2 48073  87.9074 199.3598 0001134 116.6718 243.4527 13.13469338 95521
ONEWEB-0175             
1 48073U 21025AH  23061.77344071 -.00000022  00000+0 -94411-4 0  9995
2 48073  87.9075 199.1791 0001152 117.8343 242.2902 13.13469370 95645
ONEWEB-0175             
1 48073U 21025AH  23062.38286191  .00000162  00000+0  40930-3 0  9990
2 48073  87.9075 199.0587 0001175 117.8414 242.2834 13.13470030 95729
ONEWEB-0175             
1 48073U 21025AH  23062.83992952  .00000066  00000+0  14472-3 0  9994
2 48073  87.9076 198.9684 0001143 117.7683 242.3562 13.13469065 95789
